{
    "links": {
        "self": "http://www.neowsapp.com/rest/v1/neo/54054599?api_key=iIulBulltgU6a56xZRHN4H3l9WmuAYTsLGpBGhQ2"
    },
    "id": "54054599",
    "neo_reference_id": "54054599",
    "name": "(2020 SY3)",
    "designation": "2020 SY3",
    "nasa_jpl_url": "http://ssd.jpl.nasa.gov/sbdb.cgi?sstr=54054599",
    "absolute_magnitude_h": 26.197,
    "estimated_diameter": {
        "kilometers": {
            "estimated_diameter_min": 0.0153163392,
            "estimated_diameter_max": 0.0342483757
        },
        "meters": {
            "estimated_diameter_min": 15.3163392288,
            "estimated_diameter_max": 34.248375682
        },
        "miles": {
            "estimated_diameter_min": 0.009517129,
            "estimated_diameter_max": 0.0212809474
        },
        "feet": {
            "estimated_diameter_min": 50.2504583953,
            "estimated_diameter_max": 112.3634408724
        }
    },
    "is_potentially_hazardous_asteroid": false,
    "close_approach_data": [
        {
            "close_approach_date": "2018-08-29",
            "close_approach_date_full": "2018-Aug-29 20:32",
            "epoch_date_close_approach": 1535574720000,
            "relative_velocity": {
                "kilometers_per_second": "18.3482624889",
                "kilometers_per_hour": "66053.7449601062",
                "miles_per_hour": "41043.2283614616"
            },
            "miss_distance": {
                "astronomical": "0.4244612046",
                "lunar": "165.1154085894",
                "kilometers": "63498492.105794202",
                "miles": "39456133.3893239076"
            },
            "orbiting_body": "Earth"
        },
        {
            "close_approach_date": "2020-10-03",
            "close_approach_date_full": "2020-Oct-03 02:22",
            "epoch_date_close_approach": 1601691720000,
            "relative_velocity": {
                "kilometers_per_second": "7.7804475697",
                "kilometers_per_hour": "28009.611250749",
                "miles_per_hour": "17404.0831685557"
            },
            "miss_distance": {
                "astronomical": "0.04246029",
                "lunar": "16.51705281",
                "kilometers": "6351968.9435823",
                "miles": "3946930.47994374"
            },
            "orbiting_body": "Earth"
        },
        {
            "close_approach_date": "2022-12-06",
            "close_approach_date_full": "2022-Dec-06 05:32",
            "epoch_date_close_approach": 1670304720000,
            "relative_velocity": {
                "kilometers_per_second": "16.3721252407",
                "kilometers_per_hour": "58939.6508665891",
                "miles_per_hour": "36622.8069509648"
            },
            "miss_distance": {
                "astronomical": "0.420477746",
                "lunar": "163.565843194",
                "kilometers": "62902575.18400102",
                "miles": "39085847.784493276"
            },
            "orbiting_body": "Earth"
        }
    ],
    "orbital_data": {
        "orbit_id": "2",
        "orbit_determination_date": "2020-10-06 06:30:42",
        "first_observation_date": "2020-09-18",
        "last_observation_date": "2020-10-05",
        "data_arc_in_days": 17,
        "observations_used": 19,
        "orbit_uncertainty": "7",
        "minimum_orbit_intersection": ".0409942",
        "jupiter_tisserand_invariant": "4.221",
        "epoch_osculation": "2459000.5",
        "eccentricity": ".3753666861982288",
        "semi_major_axis": "1.624438673508692",
        "inclination": "10.80408549461392",
        "ascending_node_longitude": "182.9274986577403",
        "orbital_period": "756.2291386208589",
        "perihelion_distance": "1.014678511701488",
        "perihelion_argument": "208.46644772464",
        "aphelion_distance": "2.234198835315896",
        "perihelion_time": "2459145.207760911224",
        "mean_anomaly": "291.1124217944757",
        "mean_motion": ".4760461897256894",
        "equinox": "J2000",
        "orbit_class": {
            "orbit_class_type": "APO",
            "orbit_class_description": "Near-Earth asteroid orbits which cross the Earth’s orbit similar to that of 1862 Apollo",
            "orbit_class_range": "a (semi-major axis) > 1.0 AU; q (perihelion) < 1.017 AU"
        }
    },
    "is_sentry_object": false
}